{
  "type": "FeatureCollection",
  "features": [
    {
      "type": "Feature",
      "properties": {
        "norad_id": 40894,
        "name": "GAOFEN-9 01",
        "group": "resource",
        "lat": 6.6662938197145305,
        "lon": 15.228609708480183,
        "alt_km": 613.4219849102583,
        "timestamp": "2025-12-02T17:49:11.682921+00:00",
        "meta_object_name": "GAOFEN-9 01",
        "meta_object_id": "2015-047A",
        "meta_epoch": "2025-12-02T12:55:46.934688",
        "meta_mean_motion": 14.82380155,
        "meta_eccentricity": 0.002897,
        "meta_inclination": 97.6557,
        "meta_ra_of_asc_node": 15.9344,
        "meta_arg_of_pericenter": 66.4188,
        "meta_mean_anomaly": 294.0064,
        "meta_ephemeris_type": 0,
        "meta_classification_type": "U",
        "meta_norad_cat_id": 40894,
        "meta_element_set_no": 999,
        "meta_rev_at_epoch": 55105,
        "meta_bstar": 0.00020788,
        "meta_mean_motion_dot": 1.625e-05,
        "meta_mean_motion_ddot": 0,
        "tle_line1": "1 40894U 15047A   25336.53873767  .00001625  00000+0  20788-3 0  9998",
        "tle_line2": "2 40894  97.6557  15.9344 0028970  66.4188 294.0064 14.82380155551059"
      },
      "geometry": {
        "type": "Point",
        "coordinates": [
          15.228609708480183,
          6.6662938197145305
        ]
      }
    },
    {
      "type": "Feature",
      "properties": {
        "norad_id": 41026,
        "name": "YAOGAN-28",
        "group": "resource",
        "lat": 80.65647485236939,
        "lon": -14.20304485590999,
        "alt_km": 482.5040643144148,
        "timestamp": "2025-12-02T17:49:11.682931+00:00",
        "meta_object_name": "YAOGAN-28",
        "meta_object_id": "2015-064A",
        "meta_epoch": "2025-12-02T12:40:24.039264",
        "meta_mean_motion": 15.2407305,
        "meta_eccentricity": 0.001187,
        "meta_inclination": 97.2795,
        "meta_ra_of_asc_node": 114.6109,
        "meta_arg_of_pericenter": 160.0739,
        "meta_mean_anomaly": 200.0964,
        "meta_ephemeris_type": 0,
        "meta_classification_type": "U",
        "meta_norad_cat_id": 41026,
        "meta_element_set_no": 999,
        "meta_rev_at_epoch": 56069,
        "meta_bstar": 0.00051149,
        "meta_mean_motion_dot": 0.0001238,
        "meta_mean_motion_ddot": 0,
        "tle_line1": "1 41026U 15064A   25336.52805601  .00012380  00000+0  51149-3 0  9991",
        "tle_line2": "2 41026  97.2795 114.6109 0011870 160.0739 200.0964 15.24073050560693"
      },
      "geometry": {
        "type": "Point",
        "coordinates": [
          -14.20304485590999,
          80.65647485236939
        ]
      }
    },
    {
      "type": "Feature",
      "properties": {
        "norad_id": 41038,
        "name": "YAOGAN-29",
        "group": "resource",
        "lat": -56.8881698940949,
        "lon": 167.3920638456684,
        "alt_km": 627.7701807115491,
        "timestamp": "2025-12-02T17:49:11.682941+00:00",
        "meta_object_name": "YAOGAN-29",
        "meta_object_id": "2015-069A",
        "meta_epoch": "2025-12-02T13:30:43.888608",
        "meta_mean_motion": 14.82864223,
        "meta_eccentricity": 8.28e-05,
        "meta_inclination": 98.0229,
        "meta_ra_of_asc_node": 359.7016,
        "meta_arg_of_pericenter": 10.1037,
        "meta_mean_anomaly": 350.0193,
        "meta_ephemeris_type": 0,
        "meta_classification_type": "U",
        "meta_norad_cat_id": 41038,
        "meta_element_set_no": 999,
        "meta_rev_at_epoch": 54148,
        "meta_bstar": 9.2829e-05,
        "meta_mean_motion_dot": 6.98e-06,
        "meta_mean_motion_ddot": 0,
        "tle_line1": "1 41038U 15069A   25336.56300797  .00000698  00000+0  92829-4 0  9999",
        "tle_line2": "2 41038  98.0229 359.7016 0000828  10.1037 350.0193 14.82864223541482"
      },
      "geometry": {
        "type": "Point",
        "coordinates": [
          167.3920638456684,
          -56.8881698940949
        ]
      }
    },
    {
      "type": "Feature",
      "properties": {
        "norad_id": 41167,
        "name": "KENT RIDGE 1",
        "group": "resource",
        "lat": -1.4693360767447006,
        "lon": -80.18554909440827,
        "alt_km": 492.75894450804026,
        "timestamp": "2025-12-02T17:49:11.682952+00:00",
        "meta_object_name": "KENT RIDGE 1",
        "meta_object_id": "2015-077B",
        "meta_epoch": "2025-12-02T05:15:28.609632",
        "meta_mean_motion": 15.21503241,
        "meta_eccentricity": 0.0008704,
        "meta_inclination": 14.9806,
        "meta_ra_of_asc_node": 289.1971,
        "meta_arg_of_pericenter": 341.7782,
        "meta_mean_anomaly": 18.2228,
        "meta_ephemeris_type": 0,
        "meta_classification_type": "U",
        "meta_norad_cat_id": 41167,
        "meta_element_set_no": 999,
        "meta_rev_at_epoch": 55103,
        "meta_bstar": 0.00021780995,
        "meta_mean_motion_dot": 5.81e-05,
        "meta_mean_motion_ddot": 0,
        "tle_line1": "1 41167U 15077B   25336.21908113  .00005810  00000+0  21781-3 0  9998",
        "tle_line2": "2 41167  14.9806 289.1971 0008704 341.7782  18.2228 15.21503241551038"
      },
      "geometry": {
        "type": "Point",
        "coordinates": [
          -80.18554909440827,
          -1.4693360767447006
        ]
      }
    },
    {
      "type": "Feature",
      "properties": {
        "norad_id": 41194,
        "name": "GAOFEN-4",
        "group": "resource",
        "lat": 0.030854240379135,
        "lon": 84.71590914694633,
        "alt_km": 35791.70970084573,
        "timestamp": "2025-12-02T17:49:11.682964+00:00",
        "meta_object_name": "GAOFEN-4",
        "meta_object_id": "2015-083A",
        "meta_epoch": "2025-12-02T08:27:21.716352",
        "meta_mean_motion": 1.00266937,
        "meta_eccentricity": 0.0003521,
        "meta_inclination": 0.1415,
        "meta_ra_of_asc_node": 80.6209,
        "meta_arg_of_pericenter": 110.33,
        "meta_mean_anomaly": 112.9953,
        "meta_ephemeris_type": 0,
        "meta_classification_type": "U",
        "meta_norad_cat_id": 41194,
        "meta_element_set_no": 999,
        "meta_rev_at_epoch": 3655,
        "meta_bstar": 0,
        "meta_mean_motion_dot": -3.13e-06,
        "meta_mean_motion_ddot": 0,
        "tle_line1": "1 41194U 15083A   25336.35233468 -.00000313  00000+0  00000+0 0  9995",
        "tle_line2": "2 41194   0.1415  80.6209 0003521 110.3300 112.9953  1.00266937 36559"
      },
      "geometry": {
        "type": "Point",
        "coordinates": [
          84.71590914694633,
          0.030854240379135
        ]
      }
    },
    {
      "type": "Feature",
      "properties": {
        "norad_id": 41240,
        "name": "JASON-3",
        "group": "resource",
        "lat": 47.88163918834842,
        "lon": -151.69853642133594,
        "alt_km": 1310.2106137921573,
        "timestamp": "2025-12-02T17:49:11.682975+00:00",
        "meta_object_name": "JASON-3",
        "meta_object_id": "2016-002A",
        "meta_epoch": "2025-12-02T11:56:48.212736",
        "meta_mean_motion": 12.8762595,
        "meta_eccentricity": 0.0007148,
        "meta_inclination": 66.0392,
        "meta_ra_of_asc_node": 179.3572,
        "meta_arg_of_pericenter": 270.2646,
        "meta_mean_anomaly": 89.7554,
        "meta_ephemeris_type": 0,
        "meta_classification_type": "U",
        "meta_norad_cat_id": 41240,
        "meta_element_set_no": 999,
        "meta_rev_at_epoch": 46192,
        "meta_bstar": 0.00023237,
        "meta_mean_motion_dot": -3e-08,
        "meta_mean_motion_ddot": 0,
        "tle_line1": "1 41240U 16002A   25336.49778024 -.00000003  00000+0  23237-3 0  9993",
        "tle_line2": "2 41240  66.0392 179.3572 0007148 270.2646  89.7554 12.87625950461925"
      },
      "geometry": {
        "type": "Point",
        "coordinates": [
          -151.69853642133594,
          47.88163918834842
        ]
      }
    },
    {
      "type": "Feature",
      "properties": {
        "norad_id": 41335,
        "name": "SENTINEL-3A",
        "group": "resource",
        "lat": 25.731669372119384,
        "lon": -133.90717879133544,
        "alt_km": 801.4255121153692,
        "timestamp": "2025-12-02T17:49:11.682985+00:00",
        "meta_object_name": "SENTINEL-3A",
        "meta_object_id": "2016-011A",
        "meta_epoch": "2025-12-02T12:03:06.935040",
        "meta_mean_motion": 14.26740177,
        "meta_eccentricity": 0.0001002,
        "meta_inclination": 98.6221,
        "meta_ra_of_asc_node": 41.6626,
        "meta_arg_of_pericenter": 91.2559,
        "meta_mean_anomaly": 268.8736,
        "meta_ephemeris_type": 0,
        "meta_classification_type": "U",
        "meta_norad_cat_id": 41335,
        "meta_element_set_no": 999,
        "meta_rev_at_epoch": 51001,
        "meta_bstar": 0.00010467,
        "meta_mean_motion_dot": 2.1e-06,
        "meta_mean_motion_ddot": 0,
        "tle_line1": "1 41335U 16011A   25336.50216360  .00000210  00000+0  10467-3 0  9990",
        "tle_line2": "2 41335  98.6221  41.6626 0001002  91.2559 268.8736 14.26740177510011"
      },
      "geometry": {
        "type": "Point",
        "coordinates": [
          -133.90717879133544,
          25.731669372119384
        ]
      }
    }
  ]
}